NORAD_CAT_ID,OBJECT_NAME,OBJECT_TYPE,EPOCH,MEAN_MOTION,ECCENTRICITY,INCLINATION,RA_OF_ASC_NODE,ARG_OF_PERICENTER,MEAN_ANOMALY,BSTAR,MEAN_MOTION_DOT,MEAN_MOTION_DDOT,TLE_LINE0,TLE_LINE1,TLE_LINE2,SEMIMAJOR_AXIS,PERIOD,APOGEE,PERIGEE,DECAYED
53976.0,STARLINK-5134,PAYLOAD,2024-02-14 03:56:43,15.08846997,0.0001755,53.2195,351.4371,89.9776,270.1418,3.2368e-05,2.27e-06,0.0,0 STARLINK-5134,1 53976U 22125N   24045.16438771  .00000227  00000-0  32368-4 0  9991,2 53976  53.2195 351.4371 0001755  89.9776 270.1418 15.08846997 75760,6917.859,95.437,540.938,538.51,0.0
53976.0,STARLINK-5134,PAYLOAD,2024-02-14 05:32:05,15.08857531,0.0001386,53.2196,351.1354,98.8082,261.3067,7.9394e-05,9.76e-06,0.0,0 STARLINK-5134,1 53976U 22125N   24045.23061608  .00000976  00000-0  79394-4 0  9991,2 53976  53.2196 351.1354 0001386  98.8082 261.3067 15.08857531 75777,6917.827,95.436,540.651,538.733,0.0
53976.0,STARLINK-5134,PAYLOAD,2024-02-14 13:29:01,15.08843193,0.0001393,53.2187,349.6525,96.6035,263.5115,5.8537e-06,-1.95e-06,0.0,0 STARLINK-5134,1 53976U 22125N   24045.56182442 -.00000195  00000-0  58537-5 0  9998,2 53976  53.2187 349.6525 0001393  96.6035 263.5115 15.08843193 75756,6917.871,95.437,540.699,538.772,0.0
53976.0,STARLINK-5134,PAYLOAD,2024-02-14 19:50:34,15.08836868,0.0001778,53.2194,348.4649,85.5078,274.6118,0.00012877,1.762e-05,0.0,0 STARLINK-5134,1 53976U 22125N   24045.82679338  .00001762  00000-0  12877-3 0  9997,2 53976  53.2194 348.4649 0001778  85.5078 274.6118 15.08836868 75868,6917.89,95.438,540.985,538.525,0.0
53976.0,STARLINK-5134,PAYLOAD,2024-02-15 02:12:07,15.08837558,0.0001235,53.2187,347.2755,89.1563,270.9571,0.00011071,1.474e-05,0.0,0 STARLINK-5134,1 53976U 22125N   24046.09175234  .00001474  00000-0  11071-3 0  9998,2 53976  53.2187 347.2755 0001235  89.1563 270.9571 15.08837558 75838,6917.888,95.438,540.607,538.898,0.0
53976.0,STARLINK-5134,PAYLOAD,2024-02-15 13:19:49,15.08842079,0.0001059,53.2163,345.1917,105.5201,254.5908,8.7513e-05,1.105e-05,0.0,0 STARLINK-5134,1 53976U 22125N   24046.55542865  .00001105  00000-0  87513-4 0  9993,2 53976  53.2163 345.1917 0001059 105.5201 254.5908 15.08842079 75909,6917.874,95.437,540.472,539.006,0.0
53976.0,STARLINK-5134,PAYLOAD,2024-02-16 02:02:54,15.08843893,0.0001488,53.219,342.8093,105.1552,254.9605,-1.0006e-05,-4.47e-06,0.0,0 STARLINK-5134,1 53976U 22125N   24047.08535261 -.00000447  00000-0 -10006-4 0  9997,2 53976  53.2190 342.8093 0001488 105.1552 254.9605 15.08843893 76059,6917.868,95.437,540.763,538.704,0.0
53976.0,STARLINK-5134,PAYLOAD,2024-02-16 05:13:41,15.08838178,0.0001583,53.2181,342.2181,75.2683,284.8484,5.5596e-07,-2.79e-06,0.0,0 STARLINK-5134,1 53976U 22125N   24047.21783761 -.00000279  00000-0  55596-6 0  9999,2 53976  53.2181 342.2181 0001583  75.2683 284.8484 15.08838178 76078,6917.886,95.438,540.846,538.656,0.0
53976.0,STARLINK-5134,PAYLOAD,2024-02-16 13:10:36,15.08838053,0.0001382,53.2177,340.7309,95.486,264.6289,-9.1408e-05,-1.742e-05,0.0,0 STARLINK-5134,1 53976U 22125N   24047.54903855 -.00001742  00000-0 -91408-4 0  9990,2 53976  53.2177 340.7309 0001382  95.4860 264.6289 15.08838053 76055,6917.886,95.438,540.707,538.795,0.0
53976.0,STARLINK-5134,PAYLOAD,2024-02-16 22:42:54,15.0884708,0.0001451,53.2175,338.9484,92.9784,267.1374,0.00012759,1.744e-05,0.0,0 STARLINK-5134,1 53976U 22125N   24047.94646833  .00001744  00000-0  12759-3 0  9995,2 53976  53.2175 338.9484 0001451  92.9784 267.1374 15.08847080 76110,6917.859,95.437,540.728,538.72,0.0
53976.0,STARLINK-5134,PAYLOAD,2024-02-17 00:18:17,15.08848292,0.0001494,53.2182,338.6514,90.2963,269.82,0.00013038,1.788e-05,0.0,0 STARLINK-5134,1 53976U 22125N   24048.01270760  .00001788  00000-0  13038-3 0  9995,2 53976  53.2182 338.6514 0001494  90.2963 269.8200 15.08848292 76197,6917.855,95.437,540.754,538.687,0.0
53976.0,STARLINK-5134,PAYLOAD,2024-02-17 05:04:26,15.08860699,0.0001613,53.219,337.7552,116.0271,244.0888,0.00012592,1.718e-05,0.0,0 STARLINK-5134,1 53976U 22125N   24048.21141731  .00001718  00000-0  12592-3 0  9999,2 53976  53.2190 337.7552 0001613 116.0271 244.0888 15.08860699 76226,6917.817,95.436,540.798,538.566,0.0
53976.0,STARLINK-5134,PAYLOAD,2024-02-17 19:22:57,15.08816739,0.000141,53.2178,335.0824,87.0598,273.0555,-6.3259e-05,-1.294e-05,0.0,0 STARLINK-5134,1 53976U 22125N   24048.80761531 -.00001294  00000-0 -63259-4 0  9998,2 53976  53.2178 335.0824 0001410  87.0598 273.0555 15.08816739 76318,6917.951,95.439,540.792,538.841,0.0
53976.0,STARLINK-5134,PAYLOAD,2024-02-17 22:33:44,15.08817499,0.000146,53.2175,334.4876,87.9761,272.1399,-5.379e-05,-1.143e-05,0.0,0 STARLINK-5134,1 53976U 22125N   24048.94009631 -.00001143  00000-0 -53790-4 0  9991,2 53976  53.2175 334.4876 0001460  87.9761 272.1399 15.08817499 76265,6917.949,95.439,540.824,538.804,0.0
53976.0,STARLINK-5134,PAYLOAD,2024-02-18 01:44:30,15.08821044,0.0001472,53.2183,333.8932,80.526,279.5899,-2.7679e-05,-7.28e-06,0.0,0 STARLINK-5134,1 53976U 22125N   24049.07257525 -.00000728  00000-0 -27679-4 0  9998,2 53976  53.2183 333.8932 0001472  80.5260 279.5899 15.08821044 76285,6917.938,95.439,540.822,538.785,0.0
53976.0,STARLINK-5134,PAYLOAD,2024-02-18 19:13:43,15.08850973,0.000131,53.2185,330.6178,97.8606,262.2535,3.6515e-05,2.93e-06,0.0,0 STARLINK-5134,1 53976U 22125N   24049.80119385  .00000293  00000-0  36515-4 0  9994,2 53976  53.2185 330.6178 0001310  97.8606 262.2535 15.08850973 76469,6917.847,95.437,540.618,538.806,0.0
53976.0,STARLINK-5134,PAYLOAD,2024-02-18 22:24:28,15.08867073,0.0001407,53.2184,330.023,107.3965,252.7181,0.00017466,2.495e-05,0.0,0 STARLINK-5134,1 53976U 22125N   24049.93365927  .00002495  00000-0  17466-3 0  9992,2 53976  53.2184 330.0230 0001407 107.3965 252.7181 15.08867073 76418,6917.798,95.436,540.636,538.689,0.0
53976.0,STARLINK-5134,PAYLOAD,2024-02-18 23:59:50,15.08870253,0.0001664,53.2183,329.7256,115.3301,244.7863,0.00019929,2.888e-05,0.0,0 STARLINK-5134,1 53976U 22125N   24049.99989553  .00002888  00000-0  19929-3 0  9997,2 53976  53.2183 329.7256 0001664 115.3301 244.7863 15.08870253 76498,6917.788,95.436,540.804,538.502,0.0
53976.0,STARLINK-5134,PAYLOAD,2024-02-19 11:07:32,15.08871928,0.0001327,53.2179,327.6473,83.8307,276.2836,0.00010977,1.461e-05,0.0,0 STARLINK-5134,1 53976U 22125N   24050.46357056  .00001461  00000-0  10977-3 0  9998,2 53976  53.2179 327.6473 0001327  83.8307 276.2836 15.08871928 76492,6917.783,95.436,540.566,538.73,0.0
53976.0,STARLINK-5134,PAYLOAD,2024-02-19 19:04:29,15.08842072,0.0002102,53.2205,326.1675,108.308,251.8141,0.00028005,4.172e-05,0.0,0 STARLINK-5134,1 53976U 22125N   24050.79478865  .00004172  00000-0  28005-3 0  9999,2 53976  53.2205 326.1675 0002102 108.3080 251.8141 15.08842072 76613,6917.874,95.437,541.193,538.285,0.0
53976.0,STARLINK-5134,PAYLOAD,2024-02-19 22:15:16,15.08838766,0.0001539,53.2197,325.5688,96.6297,263.487,0.00019816,2.867e-05,0.0,0 STARLINK-5134,1 53976U 22125N   24050.92727150  .00002867  00000-0  19816-3 0  9997,2 53976  53.2197 325.5688 0001539  96.6297 263.4870 15.08838766 76569,6917.884,95.438,540.814,538.684,0.0
53976.0,STARLINK-5134,PAYLOAD,2024-02-20 10:58:21,15.08841058,0.0001558,53.2188,323.1879,77.667,282.4496,0.00012001,1.623e-05,0.0,0 STARLINK-5134,1 53976U 22125N   24051.45719247  .00001623  00000-0  12001-3 0  9992,2 53976  53.2188 323.1879 0001558  77.6670 282.4496 15.08841058 76710,6917.877,95.437,540.82,538.664,0.0
53976.0,STARLINK-5134,PAYLOAD,2024-02-21 02:52:13,15.08835353,0.0001583,53.2206,320.216,92.7799,267.3375,-0.00024714,-4.219e-05,0.0,0 STARLINK-5134,1 53976U 22125N   24052.11960550 -.00004219  00000-0 -24714-3 0  9991,2 53976  53.2206 320.2160 0001583  92.7799 267.3375 15.08835353 76810,6917.895,95.438,540.855,538.664,0.0
53976.0,STARLINK-5134,PAYLOAD,2024-02-21 10:49:09,15.0883997,0.000172,53.2203,318.7285,88.1616,271.9573,-0.00014517,-2.598e-05,0.0,0 STARLINK-5134,1 53976U 22125N   24052.45080021 -.00002598  00000-0 -14517-3 0  9992,2 53976  53.2203 318.7285 0001720  88.1616 271.9573 15.08839970 76862,6917.88,95.438,540.935,538.556,0.0
53976.0,STARLINK-5134,PAYLOAD,2024-02-21 21:56:50,15.08839245,0.000163,53.2198,316.6483,96.7855,263.3322,5.1759e-05,5.36e-06,0.0,0 STARLINK-5134,1 53976U 22125N   24052.91447567  .00000536  00000-0  51759-4 0  9993,2 53976  53.2198 316.6483 0001630  96.7855 263.3322 15.08839245 76864,6917.883,95.438,540.875,538.62,0.0
53976.0,STARLINK-5134,PAYLOAD,2024-02-22 02:42:58,15.08874332,0.0002492,53.2198,315.7539,116.7233,243.4015,-0.00038154,-6.362e-05,0.0,0 STARLINK-5134,1 53976U 22125N   24053.11317826 -.00006362  00000-0 -38154-3 0  9998,2 53976  53.2198 315.7539 0002492 116.7233 243.4015 15.08874332 76961,6917.775,95.435,541.364,537.917,0.0
53976.0,STARLINK-5134,PAYLOAD,2024-02-22 10:39:55,15.08839164,0.0001517,53.2179,314.2664,86.8428,273.2737,0.00016272,2.303e-05,0.0,0 STARLINK-5134,1 53976U 22125N   24053.44439661  .00002303  00000-0  16272-3 0  9992,2 53976  53.2179 314.2664 0001517  86.8428 273.2737 15.08839164 77016,6917.883,95.438,540.797,538.699,0.0
53976.0,STARLINK-5134,PAYLOAD,2024-02-22 21:47:37,15.08840214,0.0001526,53.2182,312.1845,88.9301,271.1865,0.00037237,5.643e-05,0.0,0 STARLINK-5134,1 53976U 22125N   24053.90807868  .00005643  00000-0  37237-3 0  9995,2 53976  53.2182 312.1845 0001526  88.9301 271.1865 15.08840214 77018,6917.88,95.438,540.8,538.689,0.0
53976.0,STARLINK-5134,PAYLOAD,2024-02-23 10:30:42,15.08841616,0.0001363,53.2172,309.8055,92.9303,267.1845,0.00017818,2.549e-05,0.0,0 STARLINK-5134,1 53976U 22125N   24054.43799751  .00002549  00000-0  17818-3 0  9990,2 53976  53.2172 309.8055 0001363  92.9303 267.1845 15.08841616 77097,6917.875,95.437,540.683,538.798,0.0
53976.0,STARLINK-5134,PAYLOAD,2024-02-23 16:52:15,15.08840171,0.0001422,53.2174,308.6201,84.328,275.7874,8.1723e-05,1.013e-05,0.0,0 STARLINK-5134,1 53976U 22125N   24054.70295950  .00001013  00000-0  81723-4 0  9994,2 53976  53.2174 308.6201 0001422  84.3280 275.7874 15.08840171 77209,6917.88,95.438,540.729,538.761,0.0
